start=new Date('2022-02-11T00:00:00.000Z').valueOf();
sats=[{"INCLINATION":"53.0543","TIME_SYSTEM":"UTC","FILE":"3297147","OBJECT_ID":"2021-044BL","MEAN_ELEMENT_THEORY":"SGP4","CLASSIFICATION_TYPE":"U","ELEMENT_SET_NO":"999","SEMIMAJOR_AXIS":"6925.298","GP_ID":"195716251","ARG_OF_PERICENTER":"67.8330","OBJECT_NAME":"STARLINK-2753","DECAY_DATE":null,"EPHEMERIS_TYPE":"0","MEAN_MOTION_DOT":"0.00009153","TLE_LINE1":"1 48696U 21044BL  22041.87783626  .00009153  00000-0  63228-3 0  9992","NORAD_CAT_ID":"48696","PERIOD":"95.591","RA_OF_ASC_NODE":"290.6714","REV_AT_EPOCH":"3988","COUNTRY_CODE":"US","MEAN_MOTION":"15.06416396","CENTER_NAME":"EARTH","APOAPSIS":"548.440","ECCENTRICITY":"0.00018440","PERIAPSIS":"545.886","RCS_SIZE":"LARGE","MEAN_MOTION_DDOT":"0.0000000000000","TLE_LINE2":"2 48696  53.0543 290.6714 0001844  67.8330 292.2854 15.06416396 39889","REF_FRAME":"TEME","SITE":"AFETR","MEAN_ANOMALY":"292.2854","OBJECT_TYPE":"PAYLOAD","BSTAR":"0.00063228000000","LAUNCH_DATE":"2021-05-26","EPOCH":"2022-02-10T21:04:05.052864"},{"RA_OF_ASC_NODE":"290.5221","MEAN_MOTION_DOT":"0.00000572","TLE_LINE1":"1 48697U 21044BM  22041.91100643  .00000572  00000-0  57318-4 0  9990","PERIOD":"95.592","NORAD_CAT_ID":"48697","REV_AT_EPOCH":"3988","COUNTRY_CODE":"US","OBJECT_ID":"2021-044BM","SEMIMAJOR_AXIS":"6925.329","ELEMENT_SET_NO":"999","MEAN_ELEMENT_THEORY":"SGP4","CLASSIFICATION_TYPE":"U","INCLINATION":"53.0568","FILE":"3297147","TIME_SYSTEM":"UTC","OBJECT_NAME":"STARLINK-2715","DECAY_DATE":null,"EPHEMERIS_TYPE":"0","GP_ID":"195717000","ARG_OF_PERICENTER":"75.6363","SITE":"AFETR","REF_FRAME":"TEME","TLE_LINE2":"2 48697  53.0568 290.5221 0001793  75.6363 284.4825 15.06406401 39882","OBJECT_TYPE":"PAYLOAD","MEAN_ANOMALY":"284.4825","EPOCH":"2022-02-10T21:51:50.955552","BSTAR":"0.00005731800000","LAUNCH_DATE":"2021-05-26","APOAPSIS":"548.436","MEAN_MOTION":"15.06406401","CENTER_NAME":"EARTH","PERIAPSIS":"545.952","RCS_SIZE":"LARGE","MEAN_MOTION_DDOT":"0.0000000000000","ECCENTRICITY":"0.00017930"},{"OBJECT_TYPE":"PAYLOAD","MEAN_ANOMALY":"7.2068","SITE":"AFETR","REF_FRAME":"TEME","TLE_LINE2":"2 48879  97.5260 173.6263 0001095 233.6486   7.2068 15.16000890 35351","EPOCH":"2022-02-10T22:00:00.999936","LAUNCH_DATE":"2021-06-30","BSTAR":"-0.00090589000000","APOAPSIS":"518.699","CENTER_NAME":"EARTH","MEAN_MOTION":"15.16000890","MEAN_MOTION_DDOT":"0.0000000000000","PERIAPSIS":"517.188","RCS_SIZE":"LARGE","ECCENTRICITY":"0.00010950","RA_OF_ASC_NODE":"173.6263","PERIOD":"94.987","NORAD_CAT_ID":"48879","TLE_LINE1":"1 48879U 21059A   22041.91667824 -.00017409  00000-0 -90589-3 0  9992","MEAN_MOTION_DOT":"-0.00017409","COUNTRY_CODE":"US","REV_AT_EPOCH":"3535","ELEMENT_SET_NO":"999","SEMIMAJOR_AXIS":"6896.079","CLASSIFICATION_TYPE":"U","MEAN_ELEMENT_THEORY":"SGP4","OBJECT_ID":"2021-059A","FILE":"3296907","TIME_SYSTEM":"UTC","INCLINATION":"97.5260","EPHEMERIS_TYPE":"0","DECAY_DATE":null,"OBJECT_NAME":"STARLINK-3003","ARG_OF_PERICENTER":"233.6486","GP_ID":"195687399"},{"TLE_LINE1":"1 48880U 21059B   22041.91667824 -.00016008  00000-0 -83246-3 0  9990","MEAN_MOTION_DOT":"-0.00016008","PERIOD":"94.987","NORAD_CAT_ID":"48880","RA_OF_ASC_NODE":"173.6334","REV_AT_EPOCH":"3535","COUNTRY_CODE":"US","INCLINATION":"97.5257","FILE":"3296917","TIME_SYSTEM":"UTC","OBJECT_ID":"2021-059B","SEMIMAJOR_AXIS":"6896.078","ELEMENT_SET_NO":"999","MEAN_ELEMENT_THEORY":"SGP4","CLASSIFICATION_TYPE":"U","GP_ID":"195688061","ARG_OF_PERICENTER":"192.3864","OBJECT_NAME":"STARLINK-3004","DECAY_DATE":null,"EPHEMERIS_TYPE":"0","REF_FRAME":"TEME","SITE":"AFETR","TLE_LINE2":"2 48880  97.5257 173.6334 0002408 192.3864  67.9847 15.16001044 35358","OBJECT_TYPE":"PAYLOAD","MEAN_ANOMALY":"67.9847","BSTAR":"-0.00083246000000","LAUNCH_DATE":"2021-06-30","EPOCH":"2022-02-10T22:00:00.999936","MEAN_MOTION":"15.16001044","CENTER_NAME":"EARTH","APOAPSIS":"519.604","ECCENTRICITY":"0.00024080","RCS_SIZE":"LARGE","PERIAPSIS":"516.283","MEAN_MOTION_DDOT":"0.0000000000000"},{"MEAN_MOTION":"15.16025019","CENTER_NAME":"EARTH","APOAPSIS":"520.092","ECCENTRICITY":"0.00032220","PERIAPSIS":"515.649","RCS_SIZE":"LARGE","MEAN_MOTION_DDOT":"0.0000000000000","SITE":"AFETR","REF_FRAME":"TEME","TLE_LINE2":"2 48881  97.5262 173.6458 0003222 192.7228  59.7320 15.16025019 35358","OBJECT_TYPE":"PAYLOAD","MEAN_ANOMALY":"59.7320","BSTAR":"-0.00324440000000","LAUNCH_DATE":"2021-06-30","EPOCH":"2022-02-10T22:00:00.999936","INCLINATION":"97.5262","FILE":"3296928","TIME_SYSTEM":"UTC","OBJECT_ID":"2021-059C","SEMIMAJOR_AXIS":"6896.005","ELEMENT_SET_NO":"999","MEAN_ELEMENT_THEORY":"SGP4","CLASSIFICATION_TYPE":"U","GP_ID":"195688126","ARG_OF_PERICENTER":"192.7228","DECAY_DATE":null,"OBJECT_NAME":"STARLINK-3005","EPHEMERIS_TYPE":"0","MEAN_MOTION_DOT":"-0.00061855","TLE_LINE1":"1 48881U 21059C   22041.91667824 -.00061855  00000-0 -32444-2 0  9994","PERIOD":"94.985","NORAD_CAT_ID":"48881","RA_OF_ASC_NODE":"173.6458","REV_AT_EPOCH":"3535","COUNTRY_CODE":"US"},{"OBJECT_ID":"2021-082B","SEMIMAJOR_AXIS":"6737.873","ELEMENT_SET_NO":"999","CLASSIFICATION_TYPE":"U","MEAN_ELEMENT_THEORY":"SGP4","INCLINATION":"70.0007","FILE":"3297147","TIME_SYSTEM":"UTC","DECAY_DATE":null,"OBJECT_NAME":"STARLINK-3096","EPHEMERIS_TYPE":"0","GP_ID":"195716300","ARG_OF_PERICENTER":"289.8755","RA_OF_ASC_NODE":"65.8421","TLE_LINE1":"1 49131U 21082B   22041.91667824  .00112880  00000-0  93623-3 0  9999","MEAN_MOTION_DOT":"0.00112880","PERIOD":"91.737","NORAD_CAT_ID":"49131","REV_AT_EPOCH":"366","COUNTRY_CODE":"US","APOAPSIS":"362.420","MEAN_MOTION":"15.69706796","CENTER_NAME":"EARTH","PERIAPSIS":"357.056","RCS_SIZE":"LARGE","MEAN_MOTION_DDOT":"0.0000000000000","ECCENTRICITY":"0.00039800","SITE":"AFWTR","REF_FRAME":"TEME","TLE_LINE2":"2 49131  70.0007  65.8421 0003980 289.8755 286.1871 15.69706796  3668","OBJECT_TYPE":"PAYLOAD","MEAN_ANOMALY":"286.1871","EPOCH":"2022-02-10T22:00:00.999936","BSTAR":"0.00093623000000","LAUNCH_DATE":"2021-09-14"},{"COUNTRY_CODE":"US","REV_AT_EPOCH":"356","PERIOD":"96.108","NORAD_CAT_ID":"49132","TLE_LINE1":"1 49132U 21082C   22041.91667824  .00047722  00000-0  39824-2 0  9994","MEAN_MOTION_DOT":"0.00047722","RA_OF_ASC_NODE":"85.6557","ARG_OF_PERICENTER":"278.3258","GP_ID":"195717049","EPHEMERIS_TYPE":"0","OBJECT_NAME":"STARLINK-3090","DECAY_DATE":null,"FILE":"3297147","TIME_SYSTEM":"UTC","INCLINATION":"70.0004","SEMIMAJOR_AXIS":"6950.263","ELEMENT_SET_NO":"999","CLASSIFICATION_TYPE":"U","MEAN_ELEMENT_THEORY":"SGP4","OBJECT_ID":"2021-082C","LAUNCH_DATE":"2021-09-14","BSTAR":"0.00398240000000","EPOCH":"2022-02-10T22:00:00.999936","OBJECT_TYPE":"PAYLOAD","MEAN_ANOMALY":"97.4156","SITE":"AFWTR","REF_FRAME":"TEME","TLE_LINE2":"2 49132  70.0004  85.6557 0003412 278.3258  97.4156 14.98307439  3567","ECCENTRICITY":"0.00034120","MEAN_MOTION_DDOT":"0.0000000000000","PERIAPSIS":"569.756","RCS_SIZE":"LARGE","CENTER_NAME":"EARTH","MEAN_MOTION":"14.98307439","APOAPSIS":"574.499"},{"OBJECT_TYPE":"PAYLOAD","MEAN_ANOMALY":"127.8746","REF_FRAME":"TEME","SITE":"AFWTR","TLE_LINE2":"2 49133  70.0009  85.6575 0003406 273.6141 127.8746 14.98294557  3564","EPOCH":"2022-02-10T22:00:00.999936","LAUNCH_DATE":"2021-09-14","BSTAR":"0.00392560000000","APOAPSIS":"574.535","CENTER_NAME":"EARTH","MEAN_MOTION":"14.98294557","MEAN_MOTION_DDOT":"0.0000000000000","PERIAPSIS":"569.800","RCS_SIZE":"LARGE","ECCENTRICITY":"0.00034060","RA_OF_ASC_NODE":"85.6575","PERIOD":"96.109","NORAD_CAT_ID":"49133","MEAN_MOTION_DOT":"0.00047020","TLE_LINE1":"1 49133U 21082D   22041.91667824  .00047020  00000-0  39256-2 0  9995","COUNTRY_CODE":"US","REV_AT_EPOCH":"356","SEMIMAJOR_AXIS":"6950.302","ELEMENT_SET_NO":"999","MEAN_ELEMENT_THEORY":"SGP4","CLASSIFICATION_TYPE":"U","OBJECT_ID":"2021-082D","FILE":"3297147","TIME_SYSTEM":"UTC","INCLINATION":"70.0009","EPHEMERIS_TYPE":"0","DECAY_DATE":null,"OBJECT_NAME":"STARLINK-3077","ARG_OF_PERICENTER":"273.6141","GP_ID":"195715798"},{"EPOCH":"2022-02-10T22:00:00.999936","LAUNCH_DATE":"2021-09-14","BSTAR":"0.00388200000000","OBJECT_TYPE":"PAYLOAD","MEAN_ANOMALY":"149.6776","REF_FRAME":"TEME","SITE":"AFWTR","TLE_LINE2":"2 49134  69.9996  85.6519 0003343 277.3980 149.6776 14.98309613  3562","MEAN_MOTION_DDOT":"0.0000000000000","RCS_SIZE":"LARGE","PERIAPSIS":"569.797","ECCENTRICITY":"0.00033430","APOAPSIS":"574.444","CENTER_NAME":"EARTH","MEAN_MOTION":"14.98309613","COUNTRY_CODE":"US","REV_AT_EPOCH":"356","RA_OF_ASC_NODE":"85.6519","PERIOD":"96.108","NORAD_CAT_ID":"49134","TLE_LINE1":"1 49134U 21082E   22041.91667824  .00046511  00000-0  38820-2 0  9996","MEAN_MOTION_DOT":"0.00046511","EPHEMERIS_TYPE":"0","OBJECT_NAME":"STARLINK-3078","DECAY_DATE":null,"ARG_OF_PERICENTER":"277.3980","GP_ID":"195716048","ELEMENT_SET_NO":"999","SEMIMAJOR_AXIS":"6950.256","CLASSIFICATION_TYPE":"U","MEAN_ELEMENT_THEORY":"SGP4","OBJECT_ID":"2021-082E","FILE":"3297147","TIME_SYSTEM":"UTC","INCLINATION":"69.9996"},{"MEAN_MOTION_DOT":"0.00039502","TLE_LINE1":"1 49135U 21082F   22041.91667824  .00039502  00000-0  33091-3 0  9995","NORAD_CAT_ID":"49135","PERIOD":"91.734","RA_OF_ASC_NODE":"65.8346","REV_AT_EPOCH":"366","COUNTRY_CODE":"US","INCLINATION":"70.0010","TIME_SYSTEM":"UTC","FILE":"3297147","OBJECT_ID":"2021-082F","MEAN_ELEMENT_THEORY":"SGP4","CLASSIFICATION_TYPE":"U","ELEMENT_SET_NO":"999","SEMIMAJOR_AXIS":"6737.721","GP_ID":"195716800","ARG_OF_PERICENTER":"291.1246","DECAY_DATE":null,"OBJECT_NAME":"STARLINK-3073","EPHEMERIS_TYPE":"0","TLE_LINE2":"2 49135  70.0010  65.8346 0004376 291.1246 291.3234 15.69759859  3662","SITE":"AFWTR","REF_FRAME":"TEME","MEAN_ANOMALY":"291.3234","OBJECT_TYPE":"PAYLOAD","BSTAR":"0.00033091000000","LAUNCH_DATE":"2021-09-14","EPOCH":"2022-02-10T22:00:00.999936","MEAN_MOTION":"15.69759859","CENTER_NAME":"EARTH","APOAPSIS":"362.535","ECCENTRICITY":"0.00043760","PERIAPSIS":"356.638","RCS_SIZE":"LARGE","MEAN_MOTION_DDOT":"0.0000000000000"}];
